{"fetched_at": "2026-06-04T18:22:40.332823+00:00", "line1": "1 47613U 21010A   26153.53287257  .00000055  00000+0  00000+0 0  9999", "line2": "2 47613   0.5630  87.7253 0002631 337.8803 195.7324  1.00272435 19660"}
{"fetched_at": "2026-06-22T01:52:59.557104+00:00", "line1": "1 47613U 21010A   26172.42545174  .00000041  00000+0  00000+0 0  9998", "line2": "2 47613   0.2382 263.7649 0003014 225.1211 112.3612  1.00270790 19841"}
{"fetched_at": "2026-06-24T08:25:59.596921+00:00", "line1": "1 47613U 21010A   26173.77999344  .00000046  00000+0  00000+0 0  9994", "line2": "2 47613   0.2347 263.6506 0003098 223.8789 242.6866  1.00271364 19868"}
{"fetched_at": "2026-06-24T08:26:28.773263+00:00", "line1": "1 47613U 21010A   26172.42545174  .00000041  00000+0  00000+0 0  9998", "line2": "2 47613   0.2382 263.7649 0003014 225.1211 112.3612  1.00270790 19841"}
